TOMORROW-S2             
1 60485U 24149T   26068.75188364  .00008133  00000+0  27683-3 0  9990
2 60485  97.3857 150.0385 0001648 234.3331 125.7757 15.30674935 86869
STARLINK-36493          
1 67456U 26008M   26068.42628467  .00035696  00000+0  12998-2 0  9994
2 67456  43.0004 206.5646 0002207 280.1015  79.9588 15.27594532  9534
